[
  {
    "name": "Sun",
    "type": "star",
    "mass": 1.989e+31,
    "radius": 695700000,
    "semiMajorAxis": 0,
    "eccentricity": 0,
    "inclination": 0,
    "longitudeOfAscendingNode": 0,
    "argumentOfPeriapsis": 0,
    "meanAnomaly": 0,
    "parentBodyId": null,
    "color": "#ffcc00",
    "id": 1
  },
  {
    "name": "Mercury",
    "type": "planet",
    "mass": 3.3011e+23,
    "radius": 2439700,
    "semiMajorAxis": 579090500,
    "eccentricity": 0.20563,
    "inclination": 0.12226031410220278,
    "longitudeOfAscendingNode": 0.8435350807813794,
    "argumentOfPeriapsis": 0.5083096913508285,
    "meanAnomaly": 3.0507657193160083,
    "parentBodyId": 1,
    "color": "#b5b5b5",
    "id": 2,
    "currentPositionX": 75732467.698568,
    "currentPositionY": 452867469.383227,
    "currentPositionZ": 30043245.08545778
  },
  {
    "name": "Venus",
    "type": "planet",
    "mass": 4.8675e+24,
    "radius": 6051800,
    "semiMajorAxis": 1082080000,
    "eccentricity": 0.00677,
    "inclination": 0.05924659772234911,
    "longitudeOfAscendingNode": 1.338318470429252,
    "argumentOfPeriapsis": 0.9579065066645678,
    "meanAnomaly": 0.8746717546369582,
    "parentBodyId": 1,
    "color": "#e6e6e6",
    "id": 3,
    "currentPositionX": -269165927.3838678,
    "currentPositionY": -1052270530.8634644,
    "currentPositionZ": 1156244.6745960712
  },
  {
    "name": "Earth",
    "type": "planet",
    "mass": 5.97237e+24,
    "radius": 6371000,
    "semiMajorAxis": 1495980230,
    "eccentricity": 0.0167086,
    "inclination": 8.726646259971647e-7,
    "longitudeOfAscendingNode": -0.19653524388177426,
    "argumentOfPeriapsis": 1.9933026650579555,
    "meanAnomaly": 6.259047403624505,
    "parentBodyId": 1,
    "color": "#3498db",
    "id": 4,
    "currentPositionX": -1253743530.565578,
    "currentPositionY": 782921587.6047871,
    "currentPositionZ": 456.4280479858017
  },
  {
    "name": "Moon",
    "type": "moon",
    "mass": 7.342e+22,
    "radius": 1737400,
    "semiMajorAxis": 38474800,
    "eccentricity": 0.0549,
    "inclination": 0.08979719001510825,
    "longitudeOfAscendingNode": 2.1830578283945075,
    "argumentOfPeriapsis": 5.552765015219959,
    "meanAnomaly": 2.0135060728802663,
    "parentBodyId": 4,
    "color": "#d0d0d0",
    "id": 5,
    "currentPositionX": -34292020.8169763,
    "currentPositionY": -19596825.092134364,
    "currentPositionZ": 3540847.907921671
  },
  {
    "name": "Mars",
    "type": "planet",
    "mass": 6.4171e+23,
    "radius": 3389500,
    "semiMajorAxis": 2279392000,
    "eccentricity": 0.0934,
    "inclination": 0.03228859116189509,
    "longitudeOfAscendingNode": 0.8649502707033497,
    "argumentOfPeriapsis": 5.000403213548794,
    "meanAnomaly": 0.3381226359888615,
    "parentBodyId": 1,
    "color": "#e74c3c",
    "id": 6,
    "currentPositionX": 1894854965.4665828,
    "currentPositionY": 983368060.6345891,
    "currentPositionZ": -25975991.44851972
  },
  {
    "name": "Phobos",
    "type": "moon",
    "mass": 10659000000000000,
    "radius": 11266,
    "semiMajorAxis": 1406400,
    "eccentricity": 0.0151,
    "inclination": 0.01907644872429802,
    "longitudeOfAscendingNode": 0.2957634950429591,
    "argumentOfPeriapsis": 2.742191507563411,
    "meanAnomaly": 2.618988715665131,
    "parentBodyId": 6,
    "color": "#8B4513",
    "id": 7,
    "currentPositionX": -550337.0506325677,
    "currentPositionY": -1286943.2233829524,
    "currentPositionZ": -20426.813309313293
  },
  {
    "name": "Jupiter",
    "type": "planet",
    "mass": 1.8982e+27,
    "radius": 69911000,
    "semiMajorAxis": 7785702000,
    "eccentricity": 0.0489,
    "inclination": 0.02274164015348611,
    "longitudeOfAscendingNode": 1.7534275797235832,
    "argumentOfPeriapsis": 4.7798808625593106,
    "meanAnomaly": 0.34941491624926474,
    "parentBodyId": 1,
    "color": "#f39c12",
    "id": 8,
    "currentPositionX": 5652379822.776199,
    "currentPositionY": 4836591053.138593,
    "currentPositionZ": -146408330.33914807
  },
  {
    "name": "Europa",
    "type": "moon",
    "mass": 4.8e+22,
    "radius": 1560800,
    "semiMajorAxis": 67090000,
    "eccentricity": 0.009,
    "inclination": 0.008203047484373348,
    "longitudeOfAscendingNode": 1.7697638615222502,
    "argumentOfPeriapsis": 2.1031217486531673,
    "meanAnomaly": 3.490658503988659,
    "parentBodyId": 8,
    "color": "#f5f5dc",
    "id": 9,
    "currentPositionX": -20090208.96310394,
    "currentPositionY": 64269386.49376144,
    "currentPositionZ": 57344.991044478666
  },
  {
    "name": "Saturn",
    "type": "planet",
    "mass": 5.6834e+26,
    "radius": 58232000,
    "semiMajorAxis": 14335300000,
    "eccentricity": 0.0565,
    "inclination": 0.04337143191205908,
    "longitudeOfAscendingNode": 1.9838284942793547,
    "argumentOfPeriapsis": 5.923507854928594,
    "meanAnomaly": 5.533042794672423,
    "parentBodyId": 1,
    "color": "#f1c40f",
    "id": 10,
    "currentPositionX": 9352916341.803679,
    "currentPositionY": 10063685231.239601,
    "currentPositionZ": -547077125.2862812
  },
  {
    "name": "Titan",
    "type": "moon",
    "mass": 1.3452e+23,
    "radius": 2574730,
    "semiMajorAxis": 122187000,
    "eccentricity": 0.0288,
    "inclination": 0.006083170574901036,
    "longitudeOfAscendingNode": 0.4897393881096088,
    "argumentOfPeriapsis": 3.150877805210403,
    "meanAnomaly": 3.0688124237816297,
    "parentBodyId": 10,
    "color": "#E49B0F",
    "id": 11,
    "currentPositionX": 103693464.15579362,
    "currentPositionY": 71026942.54248638,
    "currentPositionZ": 84563.99757046746
  },
  {
    "name": "Alpha Station",
    "type": "station",
    "mass": 500000,
    "radius": 100,
    "semiMajorAxis": 1015650,
    "eccentricity": 0.0002,
    "inclination": 0.01577777643802874,
    "longitudeOfAscendingNode": 0,
    "argumentOfPeriapsis": 0,
    "meanAnomaly": 0,
    "parentBodyId": 4,
    "color": "#ffffff",
    "id": 12,
    "currentPositionX": 746133.4676553835,
    "currentPositionY": -688773.1618702598,
    "currentPositionZ": -10868.21081718922
  }
]